[{"OBJECT_NAME":"FORMOSAT 7-3","OBJECT_ID":"2019-036E","EPOCH":"2026-03-09T19:49:52.754592","MEAN_MOTION":15.08933962,"ECCENTRICITY":0.00010606,"INCLINATION":23.9981,"RA_OF_ASC_NODE":141.9797,"ARG_OF_PERICENTER":150.4425,"MEAN_ANOMALY":209.6139,"EPHEMERIS_TYPE":0,"CLASSIFICATION_TYPE":"U","NORAD_CAT_ID":44343,"ELEMENT_SET_NO":999,"REV_AT_EPOCH":36821,"BSTAR":0.00037650049,"MEAN_MOTION_DOT":6.445e-5,"MEAN_MOTION_DDOT":0},{"OBJECT_NAME":"STARLINK-3323","OBJECT_ID":"2022-001B","EPOCH":"2026-03-09T18:07:26.813280","MEAN_MOTION":15.08842876,"ECCENTRICITY":0.00013146,"INCLINATION":53.2149,"RA_OF_ASC_NODE":158.8293,"ARG_OF_PERICENTER":101.3232,"MEAN_ANOMALY":258.7908,"EPHEMERIS_TYPE":0,"CLASSIFICATION_TYPE":"U","NORAD_CAT_ID":50804,"ELEMENT_SET_NO":999,"REV_AT_EPOCH":23055,"BSTAR":0.00059139469,"MEAN_MOTION_DOT":9.137e-5,"MEAN_MOTION_DDOT":0}]
