FORMOSAT 7-3            
1 44343U 19036E   26068.82630502  .00006445  00000+0  37650-3 0  9997
2 44343  23.9981 141.9797 0001061 150.4425 209.6139 15.08933962368215
STARLINK-3323           
1 50804U 22001B   26068.75517144  .00009137  00000+0  59139-3 0  9997
2 50804  53.2149 158.8293 0001315 101.3232 258.7908 15.08842876230554
